start=new Date('2022-12-10T00:00:00.000Z').valueOf();
sats=[{"SEMIMAJOR_AXIS":"6925.444","GP_ID":"219854852","SITE":"AFETR","PERIOD":"95.594","TIME_SYSTEM":"UTC","EPHEMERIS_TYPE":"0","CLASSIFICATION_TYPE":"U","ECCENTRICITY":"0.00018180","MEAN_ANOMALY":"334.4909","LAUNCH_DATE":"2020-06-04","TLE_LINE2":"2 45703  53.0557 321.9321 0001818  25.6170 334.4909 15.06368732139945","BSTAR":"-0.00010782000000","RCS_SIZE":"LARGE","FILE":"3685697","TLE_LINE1":"1 45703U 20035AY  22343.43607893 -.00001886  00000-0 -10782-3 0  9999","EPOCH":"2022-12-09T10:27:57.219552","APOAPSIS":"548.568","ELEMENT_SET_NO":"999","MEAN_MOTION":"15.06368732","MEAN_ELEMENT_THEORY":"SGP4","CENTER_NAME":"EARTH","COUNTRY_CODE":"US","ARG_OF_PERICENTER":"25.6170","DECAY_DATE":null,"MEAN_MOTION_DOT":"-0.00001886","OBJECT_NAME":"STARLINK-1407","NORAD_CAT_ID":"45703","OBJECT_TYPE":"PAYLOAD","MEAN_MOTION_DDOT":"0.0000000000000","RA_OF_ASC_NODE":"321.9321","REF_FRAME":"TEME","INCLINATION":"53.0557","OBJECT_ID":"2020-035AY","REV_AT_EPOCH":"13994","PERIAPSIS":"546.050"},{"REF_FRAME":"TEME","INCLINATION":"53.0551","OBJECT_ID":"2020-035AZ","REV_AT_EPOCH":"13992","PERIAPSIS":"545.979","MEAN_MOTION":"15.06406040","ELEMENT_SET_NO":"999","MEAN_ELEMENT_THEORY":"SGP4","CENTER_NAME":"EARTH","COUNTRY_CODE":"US","ARG_OF_PERICENTER":"62.3429","DECAY_DATE":null,"MEAN_MOTION_DOT":"0.00001839","OBJECT_NAME":"STARLINK-1409","NORAD_CAT_ID":"45704","OBJECT_TYPE":"PAYLOAD","RA_OF_ASC_NODE":"352.4063","MEAN_MOTION_DDOT":"0.0000000000000","MEAN_ANOMALY":"297.7738","LAUNCH_DATE":"2020-06-04","TLE_LINE2":"2 45704  53.0551 352.4063 0001756  62.3429 297.7738 15.06406040139922","BSTAR":"0.00014228000000","RCS_SIZE":"LARGE","FILE":"3685263","TLE_LINE1":"1 45704U 20035AZ  22343.32913500  .00001839  00000-0  14228-3 0  9998","APOAPSIS":"548.411","EPOCH":"2022-12-09T07:53:57.264000","SEMIMAJOR_AXIS":"6925.330","GP_ID":"219839235","SITE":"AFETR","PERIOD":"95.592","TIME_SYSTEM":"UTC","EPHEMERIS_TYPE":"0","ECCENTRICITY":"0.00017560","CLASSIFICATION_TYPE":"U"},{"REV_AT_EPOCH":"13990","PERIAPSIS":"545.258","OBJECT_ID":"2020-035BA","INCLINATION":"53.0569","REF_FRAME":"TEME","RA_OF_ASC_NODE":"352.5677","MEAN_MOTION_DDOT":"0.0000000000000","OBJECT_TYPE":"PAYLOAD","NORAD_CAT_ID":"45705","OBJECT_NAME":"STARLINK-1410","ARG_OF_PERICENTER":"305.1758","DECAY_DATE":null,"MEAN_MOTION_DOT":"-0.00007345","MEAN_MOTION":"15.06337001","ELEMENT_SET_NO":"999","CENTER_NAME":"EARTH","COUNTRY_CODE":"US","MEAN_ELEMENT_THEORY":"SGP4","FILE":"3685263","RCS_SIZE":"LARGE","APOAPSIS":"549.555","TLE_LINE1":"1 45705U 20035BA  22343.28958780 -.00007345  00000-0 -47542-3 0  9998","EPOCH":"2022-12-09T06:57:00.385920","LAUNCH_DATE":"2020-06-04","TLE_LINE2":"2 45705  53.0569 352.5677 0003102 305.1758  54.8940 15.06337001139909","BSTAR":"-0.00047542000000","MEAN_ANOMALY":"54.8940","TIME_SYSTEM":"UTC","ECCENTRICITY":"0.00031020","CLASSIFICATION_TYPE":"U","EPHEMERIS_TYPE":"0","PERIOD":"95.596","SITE":"AFETR","SEMIMAJOR_AXIS":"6925.542","GP_ID":"219837984"},{"GP_ID":"219838735","SEMIMAJOR_AXIS":"6925.346","SITE":"AFETR","PERIOD":"95.592","TIME_SYSTEM":"UTC","ECCENTRICITY":"0.00015210","CLASSIFICATION_TYPE":"U","EPHEMERIS_TYPE":"0","MEAN_ANOMALY":"292.6791","LAUNCH_DATE":"2020-06-04","TLE_LINE2":"2 45706  53.0560 322.0121 0001521  67.4359 292.6791 15.06400758140341","BSTAR":"0.00013229000000","FILE":"3685263","RCS_SIZE":"LARGE","EPOCH":"2022-12-09T09:56:04.725312","TLE_LINE1":"1 45706U 20035BB  22343.41394358  .00001690  00000-0  13229-3 0  9999","APOAPSIS":"548.265","ELEMENT_SET_NO":"999","MEAN_MOTION":"15.06400758","CENTER_NAME":"EARTH","COUNTRY_CODE":"US","MEAN_ELEMENT_THEORY":"SGP4","DECAY_DATE":null,"ARG_OF_PERICENTER":"67.4359","MEAN_MOTION_DOT":"0.00001690","OBJECT_NAME":"STARLINK-1411","MEAN_MOTION_DDOT":"0.0000000000000","RA_OF_ASC_NODE":"322.0121","NORAD_CAT_ID":"45706","OBJECT_TYPE":"PAYLOAD","INCLINATION":"53.0560","REF_FRAME":"TEME","OBJECT_ID":"2020-035BB","REV_AT_EPOCH":"14034","PERIAPSIS":"546.158"},{"TIME_SYSTEM":"UTC","CLASSIFICATION_TYPE":"U","ECCENTRICITY":"0.00033980","EPHEMERIS_TYPE":"0","PERIOD":"95.597","SITE":"AFETR","GP_ID":"219838985","SEMIMAJOR_AXIS":"6925.566","FILE":"3685263","RCS_SIZE":"LARGE","TLE_LINE1":"1 45707U 20035BC  22343.21126933 -.00007498  00000-0 -48586-3 0  9998","APOAPSIS":"549.785","EPOCH":"2022-12-09T05:04:13.670112","LAUNCH_DATE":"2020-06-04","BSTAR":"-0.00048586000000","TLE_LINE2":"2 45707  53.0549 322.9421 0003398 296.6974  63.3667 15.06328903140328","MEAN_ANOMALY":"63.3667","RA_OF_ASC_NODE":"322.9421","MEAN_MOTION_DDOT":"0.0000000000000","NORAD_CAT_ID":"45707","OBJECT_TYPE":"PAYLOAD","OBJECT_NAME":"STARLINK-1412","ARG_OF_PERICENTER":"296.6974","DECAY_DATE":null,"MEAN_MOTION_DOT":"-0.00007498","MEAN_MOTION":"15.06328903","ELEMENT_SET_NO":"999","CENTER_NAME":"EARTH","COUNTRY_CODE":"US","MEAN_ELEMENT_THEORY":"SGP4","REV_AT_EPOCH":"14032","PERIAPSIS":"545.078","OBJECT_ID":"2020-035BC","INCLINATION":"53.0549","REF_FRAME":"TEME"},{"OBJECT_NAME":"STARLINK-1418","RA_OF_ASC_NODE":"320.9616","MEAN_MOTION_DDOT":"0.0000000000000","OBJECT_TYPE":"PAYLOAD","NORAD_CAT_ID":"45708","CENTER_NAME":"EARTH","COUNTRY_CODE":"US","MEAN_ELEMENT_THEORY":"SGP4","MEAN_MOTION":"15.06392870","ELEMENT_SET_NO":"999","MEAN_MOTION_DOT":"-0.00005650","ARG_OF_PERICENTER":"64.2628","DECAY_DATE":null,"OBJECT_ID":"2020-035BD","PERIAPSIS":"546.093","REV_AT_EPOCH":"13998","INCLINATION":"53.0543","REF_FRAME":"TEME","PERIOD":"95.593","ECCENTRICITY":"0.00016490","CLASSIFICATION_TYPE":"U","EPHEMERIS_TYPE":"0","TIME_SYSTEM":"UTC","GP_ID":"219855355","SEMIMAJOR_AXIS":"6925.370","SITE":"AFETR","BSTAR":"-0.00036079000000","TLE_LINE2":"2 45708  53.0543 320.9616 0001649  64.2628 295.8531 15.06392870139985","LAUNCH_DATE":"2020-06-04","TLE_LINE1":"1 45708U 20035BD  22343.64985190 -.00005650  00000-0 -36079-3 0  9996","APOAPSIS":"548.377","EPOCH":"2022-12-09T15:35:47.204160","FILE":"3685718","RCS_SIZE":"LARGE","MEAN_ANOMALY":"295.8531"},{"RA_OF_ASC_NODE":"322.0045","MEAN_MOTION_DDOT":"0.0000000000000","NORAD_CAT_ID":"45709","OBJECT_TYPE":"PAYLOAD","OBJECT_NAME":"STARLINK-1421","DECAY_DATE":null,"ARG_OF_PERICENTER":"36.5466","MEAN_MOTION_DOT":"-0.00010020","MEAN_MOTION":"15.06418425","ELEMENT_SET_NO":"999","COUNTRY_CODE":"US","CENTER_NAME":"EARTH","MEAN_ELEMENT_THEORY":"SGP4","REV_AT_EPOCH":"13994","PERIAPSIS":"546.055","OBJECT_ID":"2020-035BE","INCLINATION":"53.0552","REF_FRAME":"TEME","TIME_SYSTEM":"UTC","CLASSIFICATION_TYPE":"U","ECCENTRICITY":"0.00015920","EPHEMERIS_TYPE":"0","PERIOD":"95.591","SITE":"AFETR","GP_ID":"219855362","SEMIMAJOR_AXIS":"6925.292","FILE":"3685720","RCS_SIZE":"LARGE","EPOCH":"2022-12-09T10:06:41.558976","TLE_LINE1":"1 45709U 20035BE  22343.42131434 -.00010020  00000-0 -65441-3 0  9999","APOAPSIS":"548.260","LAUNCH_DATE":"2020-06-04","BSTAR":"-0.00065441000000","TLE_LINE2":"2 45709  53.0552 322.0045 0001592  36.5466 323.5632 15.06418425139946","MEAN_ANOMALY":"323.5632"},{"MEAN_ANOMALY":"315.1058","LAUNCH_DATE":"2020-06-04","TLE_LINE2":"2 45710  53.0559 322.0169 0001218  45.0030 315.1058 15.06379980139940","BSTAR":"-0.00000658270000","FILE":"3685735","RCS_SIZE":"LARGE","TLE_LINE1":"1 45710U 20035BF  22343.41763881 -.00000379  00000-0 -65827-5 0  9993","APOAPSIS":"548.118","EPOCH":"2022-12-09T10:01:23.993184","GP_ID":"219855519","SEMIMAJOR_AXIS":"6925.410","SITE":"AFETR","PERIOD":"95.593","TIME_SYSTEM":"UTC","ECCENTRICITY":"0.00012180","CLASSIFICATION_TYPE":"U","EPHEMERIS_TYPE":"0","INCLINATION":"53.0559","REF_FRAME":"TEME","OBJECT_ID":"2020-035BF","REV_AT_EPOCH":"13994","PERIAPSIS":"546.431","ELEMENT_SET_NO":"999","MEAN_MOTION":"15.06379980","COUNTRY_CODE":"US","CENTER_NAME":"EARTH","MEAN_ELEMENT_THEORY":"SGP4","ARG_OF_PERICENTER":"45.0030","DECAY_DATE":null,"MEAN_MOTION_DOT":"-0.00000379","OBJECT_NAME":"STARLINK-1423","MEAN_MOTION_DDOT":"0.0000000000000","RA_OF_ASC_NODE":"322.0169","OBJECT_TYPE":"PAYLOAD","NORAD_CAT_ID":"45710"},{"MEAN_ANOMALY":"303.4323","RCS_SIZE":"LARGE","FILE":"3685735","TLE_LINE1":"1 45711U 20035BG  22343.59823816  .00001127  00000-0  94511-4 0  9999","EPOCH":"2022-12-09T14:21:27.777024","APOAPSIS":"547.997","LAUNCH_DATE":"2020-06-04","BSTAR":"0.00009451100000","TLE_LINE2":"2 45711  53.0557 321.1954 0001123  56.6773 303.4323 15.06398101139972","SITE":"AFETR","SEMIMAJOR_AXIS":"6925.354","GP_ID":"219855677","TIME_SYSTEM":"UTC","EPHEMERIS_TYPE":"0","CLASSIFICATION_TYPE":"U","ECCENTRICITY":"0.00011230","PERIOD":"95.592","REF_FRAME":"TEME","INCLINATION":"53.0557","REV_AT_EPOCH":"13997","PERIAPSIS":"546.442","OBJECT_ID":"2020-035BG","ARG_OF_PERICENTER":"56.6773","DECAY_DATE":null,"MEAN_MOTION_DOT":"0.00001127","ELEMENT_SET_NO":"999","MEAN_MOTION":"15.06398101","MEAN_ELEMENT_THEORY":"SGP4","COUNTRY_CODE":"US","CENTER_NAME":"EARTH","NORAD_CAT_ID":"45711","OBJECT_TYPE":"PAYLOAD","RA_OF_ASC_NODE":"321.1954","MEAN_MOTION_DDOT":"0.0000000000000","OBJECT_NAME":"STARLINK-1433"},{"MEAN_ANOMALY":"304.3504","RCS_SIZE":"LARGE","FILE":"3685263","TLE_LINE1":"1 45712U 20035BH  22343.32915738  .00003310  00000-0  24092-3 0  9998","APOAPSIS":"547.728","EPOCH":"2022-12-09T07:53:59.197632","LAUNCH_DATE":"2020-06-04","TLE_LINE2":"2 45712  53.0544 322.3958 0000785  55.7559 304.3504 15.06409476140343","BSTAR":"0.00024092000000","SITE":"AFETR","GP_ID":"219839236","SEMIMAJOR_AXIS":"6925.320","TIME_SYSTEM":"UTC","EPHEMERIS_TYPE":"0","ECCENTRICITY":"0.00007850","CLASSIFICATION_TYPE":"U","PERIOD":"95.592","REF_FRAME":"TEME","INCLINATION":"53.0544","REV_AT_EPOCH":"14034","PERIAPSIS":"546.641","OBJECT_ID":"2020-035BH","DECAY_DATE":null,"ARG_OF_PERICENTER":"55.7559","MEAN_MOTION_DOT":"0.00003310","MEAN_MOTION":"15.06409476","ELEMENT_SET_NO":"999","MEAN_ELEMENT_THEORY":"SGP4","COUNTRY_CODE":"US","CENTER_NAME":"EARTH","OBJECT_TYPE":"PAYLOAD","NORAD_CAT_ID":"45712","RA_OF_ASC_NODE":"322.3958","MEAN_MOTION_DDOT":"0.0000000000000","OBJECT_NAME":"STARLINK-1434"}];
